{
  "type": "FeatureCollection",
  "schema_version": "1.0.0",
  "name": "VeloCity corridor fixture",
  "generated_at": "2026-09-15T00:00:00Z",
  "features": [
    {
      "type": "Feature",
      "id": "fixture-east-west",
      "geometry": { "type": "LineString", "coordinates": [[-79.425, 43.651], [-79.385, 43.659]] },
      "properties": {
        "corridorId": "fixture-east-west",
        "name": "Example East–West Connector",
        "candidateType": "plan-backed",
        "scores": { "safety": 72, "connectivity": 85, "equity": 68, "currentDemand": 55, "potentialDemand": 78, "transit": 61, "barriers": 48, "coverage": 70, "destinations": 82 },
        "meanScore": 70.2,
        "strongInputCount": 7,
        "tier": "High",
        "coreWeaknesses": [],
        "rubricVersion": "velocity-priority-v1",
        "dataStatus": "fixture"
      }
    },
    {
      "type": "Feature",
      "id": "fixture-north-south",
      "geometry": { "type": "LineString", "coordinates": [[-79.405, 43.648], [-79.404, 43.688]] },
      "properties": {
        "corridorId": "fixture-north-south",
        "name": "Example North–South Connector",
        "candidateType": "exploratory",
        "scores": { "safety": 64, "connectivity": 74, "equity": 58, "currentDemand": 46, "potentialDemand": 69, "transit": 72, "barriers": 42, "coverage": 65, "destinations": 55 },
        "meanScore": 61.6,
        "strongInputCount": 5,
        "tier": "Medium",
        "coreWeaknesses": [],
        "rubricVersion": "velocity-priority-v1",
        "dataStatus": "fixture"
      }
    },
    {
      "type": "Feature",
      "id": "fixture-core-weakness",
      "geometry": { "type": "LineString", "coordinates": [[-79.36, 43.676], [-79.321, 43.691]] },
      "properties": {
        "corridorId": "fixture-core-weakness",
        "name": "Example Corridor With Safety Weakness",
        "candidateType": "plan-backed",
        "scores": { "safety": 38, "connectivity": 81, "equity": 70, "currentDemand": 62, "potentialDemand": 76, "transit": 67, "barriers": 63, "coverage": 75, "destinations": 80 },
        "meanScore": 67.3,
        "strongInputCount": 8,
        "tier": "High",
        "coreWeaknesses": ["safety"],
        "rubricVersion": "velocity-priority-v1",
        "dataStatus": "fixture"
      }
    }
  ]
}
